JILIN-1 GAOFEN 3A       
1 44312U 19032C   26068.74542089  .00016264  00000+0  55381-3 0  9993
2 44312  44.9746 183.2861 0002618 111.2900 248.8263 15.30271310372592
STARLINK-32081          
1 60348U 24136V   26068.33672497 -.00000089  00000+0  91154-5 0  9992
2 60348  53.1602  77.0795 0001305  80.2800 279.8348 15.30190436 89619
