[{"OBJECT_NAME":"JILIN-1 GAOFEN 3A","OBJECT_ID":"2019-032C","EPOCH":"2026-03-09T17:53:24.364896","MEAN_MOTION":15.3027131,"ECCENTRICITY":0.00026181,"INCLINATION":44.9746,"RA_OF_ASC_NODE":183.2861,"ARG_OF_PERICENTER":111.29,"MEAN_ANOMALY":248.8263,"EPHEMERIS_TYPE":0,"CLASSIFICATION_TYPE":"U","NORAD_CAT_ID":44312,"ELEMENT_SET_NO":999,"REV_AT_EPOCH":37259,"BSTAR":0.00055381133,"MEAN_MOTION_DOT":0.00016264,"MEAN_MOTION_DDOT":0},{"OBJECT_NAME":"STARLINK-32081","OBJECT_ID":"2024-136V","EPOCH":"2026-03-09T08:04:53.037408","MEAN_MOTION":15.30190436,"ECCENTRICITY":0.00013053,"INCLINATION":53.1602,"RA_OF_ASC_NODE":77.0795,"ARG_OF_PERICENTER":80.28,"MEAN_ANOMALY":279.8348,"EPHEMERIS_TYPE":0,"CLASSIFICATION_TYPE":"U","NORAD_CAT_ID":60348,"ELEMENT_SET_NO":999,"REV_AT_EPOCH":8961,"BSTAR":9.115408e-6,"MEAN_MOTION_DOT":-8.9e-7,"MEAN_MOTION_DDOT":0}]
